{
    "links": {
        "self": "http://www.neowsapp.com/rest/v1/neo/3137721?api_key=iIulBulltgU6a56xZRHN4H3l9WmuAYTsLGpBGhQ2"
    },
    "id": "3137721",
    "neo_reference_id": "3137721",
    "name": "(2002 SQ41)",
    "designation": "2002 SQ41",
    "nasa_jpl_url": "http://ssd.jpl.nasa.gov/sbdb.cgi?sstr=3137721",
    "absolute_magnitude_h": 20.1,
    "estimated_diameter": {
        "kilometers": {
            "estimated_diameter_min": 0.2538370294,
            "estimated_diameter_max": 0.5675968529
        },
        "meters": {
            "estimated_diameter_min": 253.8370293645,
            "estimated_diameter_max": 567.5968528656
        },
        "miles": {
            "estimated_diameter_min": 0.1577269688,
            "estimated_diameter_max": 0.3526882241
        },
        "feet": {
            "estimated_diameter_min": 832.7986794202,
            "estimated_diameter_max": 1862.1944587557
        }
    },
    "is_potentially_hazardous_asteroid": true,
    "close_approach_data": [
        {
            "close_approach_date": "1998-10-19",
            "close_approach_date_full": "1998-Oct-19 20:13",
            "epoch_date_close_approach": 908827980000,
            "relative_velocity": {
                "kilometers_per_second": "33.1732722192",
                "kilometers_per_hour": "119423.779989003",
                "miles_per_hour": "74205.2926270558"
            },
            "miss_distance": {
                "astronomical": "0.1339199436",
                "lunar": "52.0948580604",
                "kilometers": "20034138.313080132",
                "miles": "12448636.2968125416"
            },
            "orbiting_body": "Venus"
        },
        {
            "close_approach_date": "2002-10-20",
            "close_approach_date_full": "2002-Oct-20 19:54",
            "epoch_date_close_approach": 1035143640000,
            "relative_velocity": {
                "kilometers_per_second": "25.2609271121",
                "kilometers_per_hour": "90939.3376036216",
                "miles_per_hour": "56506.1678570947"
            },
            "miss_distance": {
                "astronomical": "0.0820271368",
                "lunar": "31.9085562152",
                "kilometers": "12271084.947478616",
                "miles": "7624898.6151162608"
            },
            "orbiting_body": "Earth"
        },
        {
            "close_approach_date": "2082-10-14",
            "close_approach_date_full": "2082-Oct-14 05:36",
            "epoch_date_close_approach": 3559181760000,
            "relative_velocity": {
                "kilometers_per_second": "28.0134765641",
                "kilometers_per_hour": "100848.5156306848",
                "miles_per_hour": "62663.3457261885"
            },
            "miss_distance": {
                "astronomical": "0.0525338505",
                "lunar": "20.4356678445",
                "kilometers": "7858952.137698435",
                "miles": "4883326.415511003"
            },
            "orbiting_body": "Earth"
        }
    ],
    "orbital_data": {
        "orbit_id": "17",
        "orbit_determination_date": "2017-04-06 09:14:48",
        "first_observation_date": "2002-09-29",
        "last_observation_date": "2002-10-21",
        "data_arc_in_days": 22,
        "observations_used": 82,
        "orbit_uncertainty": "7",
        "minimum_orbit_intersection": ".0108905",
        "jupiter_tisserand_invariant": "2.765",
        "epoch_osculation": "2459000.5",
        "eccentricity": ".799953704356935",
        "semi_major_axis": "2.607629189578712",
        "inclination": "25.11892949271886",
        "ascending_node_longitude": "21.90362881698637",
        "orbital_period": "1538.038396716087",
        "perihelion_distance": ".521646559785949",
        "perihelion_argument": "95.76080338826526",
        "aphelion_distance": "4.693611819371474",
        "perihelion_time": "2458754.099537377714",
        "mean_anomaly": "57.67357091566638",
        "mean_motion": ".2340643775660263",
        "equinox": "J2000",
        "orbit_class": {
            "orbit_class_type": "APO",
            "orbit_class_description": "Near-Earth asteroid orbits which cross the Earth’s orbit similar to that of 1862 Apollo",
            "orbit_class_range": "a (semi-major axis) > 1.0 AU; q (perihelion) < 1.017 AU"
        }
    },
    "is_sentry_object": false
}